ACS3                    
1 59588U 24077B   24217.16484056  .00000056  00000+0  10047-3 0  9990
2 59588  97.4035 274.1963 0019264 326.6184  33.3751 13.67694720 13965
